{
    "links": {
        "self": "http://www.neowsapp.com/rest/v1/neo/3455348?api_key=iIulBulltgU6a56xZRHN4H3l9WmuAYTsLGpBGhQ2"
    },
    "id": "3455348",
    "neo_reference_id": "3455348",
    "name": "(2009 FJ30)",
    "designation": "2009 FJ30",
    "nasa_jpl_url": "http://ssd.jpl.nasa.gov/sbdb.cgi?sstr=3455348",
    "absolute_magnitude_h": 22.6,
    "estimated_diameter": {
        "kilometers": {
            "estimated_diameter_min": 0.0802703167,
            "estimated_diameter_max": 0.1794898848
        },
        "meters": {
            "estimated_diameter_min": 80.2703167283,
            "estimated_diameter_max": 179.4898847799
        },
        "miles": {
            "estimated_diameter_min": 0.049877647,
            "estimated_diameter_max": 0.1115298092
        },
        "feet": {
            "estimated_diameter_min": 263.3540659348,
            "estimated_diameter_max": 588.8775935812
        }
    },
    "is_potentially_hazardous_asteroid": false,
    "close_approach_data": [
        {
            "close_approach_date": "2009-04-23",
            "close_approach_date_full": "2009-Apr-23 23:45",
            "epoch_date_close_approach": 1240530300000,
            "relative_velocity": {
                "kilometers_per_second": "14.2245201758",
                "kilometers_per_hour": "51208.2726329617",
                "miles_per_hour": "31818.8291812978"
            },
            "miss_distance": {
                "astronomical": "0.0249018406",
                "lunar": "9.6868159934",
                "kilometers": "3725262.312839522",
                "miles": "2314770.6638565236"
            },
            "orbiting_body": "Earth"
        }
    ],
    "orbital_data": {
        "orbit_id": "20",
        "orbit_determination_date": "2017-04-06 09:00:52",
        "first_observation_date": "2009-03-27",
        "last_observation_date": "2009-04-20",
        "data_arc_in_days": 24,
        "observations_used": 86,
        "orbit_uncertainty": "8",
        "minimum_orbit_intersection": ".0055821",
        "jupiter_tisserand_invariant": "3.357",
        "epoch_osculation": "2454926.5",
        "eccentricity": ".6129382635527526",
        "semi_major_axis": "2.242887361043601",
        "inclination": "1.723288717213177",
        "ascending_node_longitude": "226.9643777420187",
        "orbital_period": "1226.901287841926",
        "perihelion_distance": ".8681358766211207",
        "perihelion_argument": "39.68061251365248",
        "aphelion_distance": "3.617638845466082",
        "perihelion_time": "2454982.575676317602",
        "mean_anomaly": "343.5461551190925",
        "mean_motion": ".2934221388203337",
        "equinox": "J2000",
        "orbit_class": {
            "orbit_class_type": "APO",
            "orbit_class_description": "Near-Earth asteroid orbits which cross the Earth’s orbit similar to that of 1862 Apollo",
            "orbit_class_range": "a (semi-major axis) > 1.0 AU; q (perihelion) < 1.017 AU"
        }
    },
    "is_sentry_object": false
}